{"fetched_at":"2026-06-13T17:21:47Z","count":1672,"tles":[{"name":"GAOFEN-3 03","line1":"1 52200U 22035A   26163.85885689 -.00000117  00000+0 -22473-4 0  9998","line2":"2 52200  98.4063 172.5016 0001207 101.6579 258.4747 14.42214036220224","category":"Other"},{"name":"GAOFEN-8","line1":"1 40701U 15030A   26163.88030130  .00023745  00000+0  49054-3 0  9997","line2":"2 40701  97.6905 356.9937 0008300 202.4775 157.6111 15.45806497610783","category":"Other"},{"name":"GAOFEN-6","line1":"1 43484U 18048A   26163.86974865  .00000163  00000+0  30432-4 0  9990","line2":"2 43484  97.8549 226.7291 0011464 181.5175 178.6002 14.76592394432755","category":"Other"},{"name":"GOES 14","line1":"1 35491U 09033A   26163.29340598 -.00000257  00000+0  00000+0 0  9998","line2":"2 35491   1.6767  83.0988 0001768   8.9294  58.8696  1.00112438  6548","category":"Weather"},{"name":"GAOFEN-9 01","line1":"1 40894U 15047A   26163.87894314  .00000945  00000+0  12209-3 0  9998","line2":"2 40894  97.6276 199.7694 0028083 151.4854 208.7904 14.82876119579556","category":"Other"},{"name":"GOES 16","line1":"1 41866U 16071A   26163.24407800 -.00000075  00000+0  00000+0 0  9994","line2":"2 41866   0.3277  85.5604 0000260 298.9228 219.2798  1.00270156 35055","category":"Weather"},{"name":"GAOFEN-4","line1":"1 41194U 15083A   26163.85609115 -.00000321  00000+0  00000+0 0  9994","line2":"2 41194   0.3447  83.8685 0004312 113.1478 118.0721  1.00271177 38481","category":"Other"}]}